OBJECT_NAME,OBJECT_ID,EPOCH,MEAN_MOTION,ECCENTRICITY,INCLINATION,RA_OF_ASC_NODE,ARG_OF_PERICENTER,MEAN_ANOMALY,EPHEMERIS_TYPE,CLASSIFICATION_TYPE,NORAD_CAT_ID,ELEMENT_SET_NO,REV_AT_EPOCH,BSTAR,MEAN_MOTION_DOT,MEAN_MOTION_DDOT
LEMUR-2-FINNIAN,2025-276DX,2026-07-19T03:44:36.683232,15.00640841,.00070705,97.5359,270.1540,343.4542,16.6451,0,U,66782,999,2479,.11279798E-3,.1369E-4,0
LEMUR-2-STARLIGHT,2025-276DY,2026-07-19T03:21:28.483200,14.99384403,.00146552,97.5234,269.6876,35.4306,324.7888,0,U,66783,999,3498,.303275E-3,.3662E-4,0
LEMUR-2-TARTIFLETTE,2025-276DZ,2026-07-19T04:55:20.169984,14.99367086,.00138644,97.5232,269.7584,43.8497,316.3825,0,U,66784,999,3499,.27905785E-3,.3363E-4,0
LEMUR-2-VUKASIN,2025-276EA,2026-07-19T04:08:01.789152,15.00565379,.00024128,97.5207,270.0917,41.9946,318.1463,0,U,66785,999,3494,.18146128E-3,.2233E-4,0
LEMUR-2-HOTSPUR-TOM,2025-276EB,2026-07-19T03:11:33.252000,14.99264226,.00136534,97.5212,269.6614,35.7744,324.4392,0,U,66786,999,3491,.24280969E-3,.291E-4,0
LEMUR-2-MYRA,2025-276EC,2026-07-19T03:17:45.921120,15.00614845,.0018616,97.5220,269.9778,42.2452,318.0202,0,U,66787,999,3500,.2547125E-3,.3172E-4,0
LEMUR-2 FIKRETDENGIZ,2026-004A,2026-07-18T23:59:08.634336,14.88531966,.00099162,97.8032,198.0748,45.1686,315.0335,0,U,67363,999,2801,.23850479E-3,.2165E-4,0
TWILIGHT-1 OBJECT B,2026-004B,2026-07-19T05:45:50.693184,14.87800972,.00094394,97.8077,198.3105,34.1425,326.0396,0,U,67364,999,2805,.98627322E-4,.847E-5,0
LEMUR-2-MARIO-SOUSA,2026-004C,2026-07-18T23:29:21.945408,14.88744542,.0009565,97.8005,198.0493,46.6501,313.5512,0,U,67365,999,2802,.21004198E-3,.191E-4,0
LEMUR-2-SONNENBLUME,2026-004E,2026-07-19T06:01:42.248352,14.88464736,.00091766,97.8003,198.2885,46.8859,313.3124,0,U,67367,999,2806,.14520029E-3,.1294E-4,0
LEMUR-2-WOBLER,2026-004F,2026-07-19T05:45:18.587808,14.88713707,.00092006,97.8056,198.4326,38.3918,321.7952,0,U,67368,999,2806,.17172689E-3,.155E-4,0
LEMUR-2-GRAM-E-SUE,2026-004H,2026-07-18T23:07:14.310048,14.88598817,.00083707,97.7988,198.0217,50.7985,309.3974,0,U,67370,999,2802,.13087766E-3,.1165E-4,0
LEMUR-2-KATIE,2026-004AA,2026-07-19T06:02:38.238144,14.90269795,.00031154,97.8049,198.8709,23.8338,336.3023,0,U,67387,999,2808,.21541171E-3,.2036E-4,0
LEMUR-2-HCS-BAZUS,2026-004AB,2026-07-19T06:00:13.898304,14.90278599,.00026413,97.8039,198.8470,25.2355,334.8991,0,U,67388,999,2808,.18934613E-3,.1783E-4,0
