LEMUR-2-FINNIAN         
1 66782U 25276DX  26200.15598013  .00001369  00000+0  11280-3 0  9996
2 66782  97.5359 270.1540 0007070 343.4542  16.6451 15.00640841 24791
LEMUR-2-STARLIGHT       
1 66783U 25276DY  26200.13991300  .00003662  00000+0  30327-3 0  9992
2 66783  97.5234 269.6876 0014655  35.4306 324.7888 14.99384403 34987
LEMUR-2-TARTIFLETTE     
1 66784U 25276DZ  26200.20509456  .00003363  00000+0  27906-3 0  9995
2 66784  97.5232 269.7584 0013864  43.8497 316.3825 14.99367086 34995
LEMUR-2-VUKASIN         
1 66785U 25276EA  26200.17224293  .00002233  00000+0  18146-3 0  9996
2 66785  97.5207 270.0917 0002412  41.9946 318.1463 15.00565379 34949
LEMUR-2-HOTSPUR-TOM     
1 66786U 25276EB  26200.13302375  .00002910  00000+0  24281-3 0  9990
2 66786  97.5212 269.6614 0013653  35.7744 324.4392 14.99264226 34912
LEMUR-2-MYRA            
1 66787U 25276EC  26200.13733705  .00003172  00000+0  25471-3 0  9999
2 66787  97.5220 269.9778 0018616  42.2452 318.0202 15.00614845 35008
LEMUR-2 FIKRETDENGIZ    
1 67363U 26004A   26199.99940549  .00002165  00000+0  23850-3 0  9997
2 67363  97.8032 198.0748 0009916  45.1686 315.0335 14.88531966 28010
TWILIGHT-1 OBJECT B     
1 67364U 26004B   26200.24017006  .00000847  00000+0  98627-4 0  9992
2 67364  97.8077 198.3105 0009439  34.1425 326.0396 14.87800972 28057
LEMUR-2-MARIO-SOUSA     
1 67365U 26004C   26199.97872622  .00001910  00000+0  21004-3 0  9999
2 67365  97.8005 198.0493 0009565  46.6501 313.5512 14.88744542 28028
LEMUR-2-SONNENBLUME     
1 67367U 26004E   26200.25118343  .00001294  00000+0  14520-3 0  9998
2 67367  97.8003 198.2885 0009176  46.8859 313.3124 14.88464736 28066
LEMUR-2-WOBLER          
1 67368U 26004F   26200.23979847  .00001550  00000+0  17173-3 0  9993
2 67368  97.8056 198.4326 0009200  38.3918 321.7952 14.88713707 28064
LEMUR-2-GRAM-E-SUE      
1 67370U 26004H   26199.96336007  .00001165  00000+0  13088-3 0  9991
2 67370  97.7988 198.0217 0008370  50.7985 309.3974 14.88598817 28029
LEMUR-2-KATIE           
1 67387U 26004AA  26200.25183146  .00002036  00000+0  21541-3 0  9999
2 67387  97.8049 198.8709 0003115  23.8338 336.3023 14.90269795 28089
LEMUR-2-HCS-BAZUS       
1 67388U 26004AB  26200.25016086  .00001783  00000+0  18935-3 0  9999
2 67388  97.8039 198.8470 0002641  25.2355 334.8991 14.90278599 28081
